{
  "type": "FeatureCollection",
  "features": [
    {
      "type": "Feature",
      "properties": {
        "norad_id": 36585,
        "name": "GPS BIIF-1  (PRN 25)",
        "group": "gnss",
        "lat": -46.588778705355125,
        "lon": 166.06559160309746,
        "alt_km": 20396.112299165387,
        "timestamp": "2025-12-26T08:37:54.822651+00:00",
        "meta_object_name": "GPS BIIF-1  (PRN 25)",
        "meta_object_id": "2010-022A",
        "meta_epoch": "2025-12-26T01:43:04.881792",
        "meta_mean_motion": 2.00553834,
        "meta_eccentricity": 0.0126607,
        "meta_inclination": 54.2982,
        "meta_ra_of_asc_node": 215.5361,
        "meta_arg_of_pericenter": 65.2423,
        "meta_mean_anomaly": 24.4831,
        "meta_ephemeris_type": 0,
        "meta_classification_type": "U",
        "meta_norad_cat_id": 36585,
        "meta_element_set_no": 999,
        "meta_rev_at_epoch": 11412,
        "meta_bstar": 0,
        "meta_mean_motion_dot": 8.1e-07,
        "meta_mean_motion_ddot": 0,
        "tle_line1": "1 36585U 10022A   25360.07158428  .00000081  00000+0  00000+0 0  9990",
        "tle_line2": "2 36585  54.2982 215.5361 0126607  65.2423  24.4831  2.00553834114127"
      },
      "geometry": {
        "type": "Point",
        "coordinates": [
          166.06559160309746,
          -46.588778705355125
        ]
      }
    },
    {
      "type": "Feature",
      "properties": {
        "norad_id": 36828,
        "name": "BEIDOU-2 IGSO-1 (C06)",
        "group": "gnss",
        "lat": 10.025765734193616,
        "lon": -22.80063542365574,
        "alt_km": 35640.066088969,
        "timestamp": "2025-12-26T08:37:54.822664+00:00",
        "meta_object_name": "BEIDOU-2 IGSO-1 (C06)",
        "meta_object_id": "2010-036A",
        "meta_epoch": "2025-12-25T21:06:51.904224",
        "meta_mean_motion": 1.00272533,
        "meta_eccentricity": 0.00515074,
        "meta_inclination": 54.2892,
        "meta_ra_of_asc_node": 164.5291,
        "meta_arg_of_pericenter": 215.7944,
        "meta_mean_anomaly": 138.9488,
        "meta_ephemeris_type": 0,
        "meta_classification_type": "U",
        "meta_norad_cat_id": 36828,
        "meta_element_set_no": 999,
        "meta_rev_at_epoch": 5635,
        "meta_bstar": 0,
        "meta_mean_motion_dot": -5.2e-07,
        "meta_mean_motion_ddot": 0,
        "tle_line1": "1 36828U 10036A   25359.87976741 -.00000052  00000+0  00000+0 0  9996",
        "tle_line2": "2 36828  54.2892 164.5291 0051507 215.7944 138.9488  1.00272533 56350"
      },
      "geometry": {
        "type": "Point",
        "coordinates": [
          -22.80063542365574,
          10.025765734193616
        ]
      }
    },
    {
      "type": "Feature",
      "properties": {
        "norad_id": 37210,
        "name": "BEIDOU-2 G4 (C04)",
        "group": "gnss",
        "lat": -2.2762839795331185,
        "lon": 24.810010149043087,
        "alt_km": 35809.058333793706,
        "timestamp": "2025-12-26T08:37:54.822677+00:00",
        "meta_object_name": "BEIDOU-2 G4 (C04)",
        "meta_object_id": "2010-057A",
        "meta_epoch": "2025-12-26T05:23:59.678592",
        "meta_mean_motion": 1.00271369,
        "meta_eccentricity": 0.001045,
        "meta_inclination": 3.2158,
        "meta_ra_of_asc_node": 69.8869,
        "meta_arg_of_pericenter": 194.0651,
        "meta_mean_anomaly": 72.1025,
        "meta_ephemeris_type": 0,
        "meta_classification_type": "U",
        "meta_norad_cat_id": 37210,
        "meta_element_set_no": 999,
        "meta_rev_at_epoch": 5555,
        "meta_bstar": 0,
        "meta_mean_motion_dot": -9.1e-07,
        "meta_mean_motion_ddot": 0,
        "tle_line1": "1 37210U 10057A   25360.22499628 -.00000091  00000+0  00000+0 0  9993",
        "tle_line2": "2 37210   3.2158  69.8869 0010450 194.0651  72.1025  1.00271369 55552"
      },
      "geometry": {
        "type": "Point",
        "coordinates": [
          24.810010149043087,
          -2.2762839795331185
        ]
      }
    },
    {
      "type": "Feature",
      "properties": {
        "norad_id": 37256,
        "name": "BEIDOU-2 IGSO-2 (C07)",
        "group": "gnss",
        "lat": 39.20726136552256,
        "lon": -38.516427346244775,
        "alt_km": 35966.96062945525,
        "timestamp": "2025-12-26T08:37:54.822690+00:00",
        "meta_object_name": "BEIDOU-2 IGSO-2 (C07)",
        "meta_object_id": "2010-068A",
        "meta_epoch": "2025-12-26T05:49:55.295904",
        "meta_mean_motion": 1.00282085,
        "meta_eccentricity": 0.0048328,
        "meta_inclination": 47.8612,
        "meta_ra_of_asc_node": 273.9839,
        "meta_arg_of_pericenter": 216.056,
        "meta_mean_anomaly": 160.5314,
        "meta_ephemeris_type": 0,
        "meta_classification_type": "U",
        "meta_norad_cat_id": 37256,
        "meta_element_set_no": 999,
        "meta_rev_at_epoch": 5506,
        "meta_bstar": 0,
        "meta_mean_motion_dot": -2e-06,
        "meta_mean_motion_ddot": 0,
        "tle_line1": "1 37256U 10068A   25360.24300111 -.00000200  00000+0  00000+0 0  9997",
        "tle_line2": "2 37256  47.8612 273.9839 0048328 216.0560 160.5314  1.00282085 55061"
      },
      "geometry": {
        "type": "Point",
        "coordinates": [
          -38.516427346244775,
          39.20726136552256
        ]
      }
    },
    {
      "type": "Feature",
      "properties": {
        "norad_id": 37384,
        "name": "BEIDOU-2 IGSO-3 (C08)",
        "group": "gnss",
        "lat": -56.01912702127039,
        "lon": -9.783215661344922,
        "alt_km": 35824.93148308962,
        "timestamp": "2025-12-26T08:37:54.822702+00:00",
        "meta_object_name": "BEIDOU-2 IGSO-3 (C08)",
        "meta_object_id": "2011-013A",
        "meta_epoch": "2025-12-24T13:36:08.179776",
        "meta_mean_motion": 1.00268125,
        "meta_eccentricity": 0.00352821,
        "meta_inclination": 62.1584,
        "meta_ra_of_asc_node": 41.8043,
        "meta_arg_of_pericenter": 187.8377,
        "meta_mean_anomaly": 174.9924,
        "meta_ephemeris_type": 0,
        "meta_classification_type": "U",
        "meta_norad_cat_id": 37384,
        "meta_element_set_no": 999,
        "meta_rev_at_epoch": 5391,
        "meta_bstar": 0,
        "meta_mean_motion_dot": -1.63e-06,
        "meta_mean_motion_ddot": 0,
        "tle_line1": "1 37384U 11013A   25358.56676134 -.00000163  00000+0  00000+0 0  9991",
        "tle_line2": "2 37384  62.1584  41.8043 0035282 187.8377 174.9924  1.00268125 53913"
      },
      "geometry": {
        "type": "Point",
        "coordinates": [
          -9.783215661344922,
          -56.01912702127039
        ]
      }
    },
    {
      "type": "Feature",
      "properties": {
        "norad_id": 37605,
        "name": "GSAT-8 (GAGAN/PRN 127)",
        "group": "gnss",
        "lat": -0.4719655014927828,
        "lon": -80.34282703456452,
        "alt_km": 35748.34190210615,
        "timestamp": "2025-12-26T08:37:54.822714+00:00",
        "meta_object_name": "GSAT-8 (GAGAN/PRN 127)",
        "meta_object_id": "2011-022A",
        "meta_epoch": "2025-12-25T21:53:38.819040",
        "meta_mean_motion": 1.00271717,
        "meta_eccentricity": 0.0009035,
        "meta_inclination": 1.6818,
        "meta_ra_of_asc_node": 84.0546,
        "meta_arg_of_pericenter": 186.5818,
        "meta_mean_anomaly": 207.5084,
        "meta_ephemeris_type": 0,
        "meta_classification_type": "U",
        "meta_norad_cat_id": 37605,
        "meta_element_set_no": 999,
        "meta_rev_at_epoch": 5148,
        "meta_bstar": 0,
        "meta_mean_motion_dot": 1.06e-06,
        "meta_mean_motion_ddot": 0,
        "tle_line1": "1 37605U 11022A   25359.91225485  .00000106  00000+0  00000+0 0  9992",
        "tle_line2": "2 37605   1.6818  84.0546 0009035 186.5818 207.5084  1.00271717 51488"
      },
      "geometry": {
        "type": "Point",
        "coordinates": [
          -80.34282703456452,
          -0.4719655014927828
        ]
      }
    },
    {
      "type": "Feature",
      "properties": {
        "norad_id": 37763,
        "name": "BEIDOU-2 IGSO-4 (C09)",
        "group": "gnss",
        "lat": 23.65732510278258,
        "lon": -30.964725331564445,
        "alt_km": 35659.67502924229,
        "timestamp": "2025-12-26T08:37:54.822726+00:00",
        "meta_object_name": "BEIDOU-2 IGSO-4 (C09)",
        "meta_object_id": "2011-038A",
        "meta_epoch": "2025-12-21T10:06:26.864064",
        "meta_mean_motion": 1.00280083,
        "meta_eccentricity": 0.01491557,
        "meta_inclination": 54.5854,
        "meta_ra_of_asc_node": 167.2693,
        "meta_arg_of_pericenter": 230.0944,
        "meta_mean_anomaly": 299.1265,
        "meta_ephemeris_type": 0,
        "meta_classification_type": "U",
        "meta_norad_cat_id": 37763,
        "meta_element_set_no": 999,
        "meta_rev_at_epoch": 5286,
        "meta_bstar": 0,
        "meta_mean_motion_dot": 5.9e-07,
        "meta_mean_motion_ddot": 0,
        "tle_line1": "1 37763U 11038A   25355.42114426  .00000059  00000+0  00000+0 0  9995",
        "tle_line2": "2 37763  54.5854 167.2693 0149155 230.0944 299.1265  1.00280083 52867"
      },
      "geometry": {
        "type": "Point",
        "coordinates": [
          -30.964725331564445,
          23.65732510278258
        ]
      }
    }
  ]
}